NORAD_CAT_ID,OBJECT_NAME,OBJECT_TYPE,EPOCH,MEAN_MOTION,ECCENTRICITY,INCLINATION,RA_OF_ASC_NODE,ARG_OF_PERICENTER,MEAN_ANOMALY,BSTAR,MEAN_MOTION_DOT,MEAN_MOTION_DDOT,TLE_LINE0,TLE_LINE1,TLE_LINE2,SEMIMAJOR_AXIS,PERIOD,APOGEE,PERIGEE,DECAYED
52539.0,STARLINK-3757,PAYLOAD,2024-01-12 10:27:32,15.08840323,0.0001614,53.2193,63.2492,88.8384,271.2793,0.00011577,1.555e-05,0.0,0 STARLINK-3757,1 52539U 22051G   24012.43579464  .00001555  00000-0  11577-3 0  9995,2 52539  53.2193  63.2492 0001614  88.8384 271.2793 15.08840323 92664,6917.879,95.438,540.861,538.628,0.0
52539.0,STARLINK-3757,PAYLOAD,2024-01-13 11:53:43,15.08840876,0.0001659,53.2193,58.4886,91.0873,269.0309,6.9055e-05,8.11e-06,0.0,0 STARLINK-3757,1 52539U 22051G   24013.49563776  .00000811  00000-0  69055-4 0  9990,2 52539  53.2193  58.4886 0001659  91.0873 269.0309 15.08840876 92824,6917.878,95.437,540.89,538.595,0.0
52539.0,STARLINK-3757,PAYLOAD,2024-01-14 11:44:30,15.08844448,0.0001849,53.2193,54.0234,92.7968,267.3236,3.0136e-05,1.92e-06,0.0,0 STARLINK-3757,1 52539U 22051G   24014.48923919  .00000192  00000-0  30136-4 0  9999,2 52539  53.2193  54.0234 0001849  92.7968 267.3236 15.08844448 92905,6917.867,95.437,541.011,538.453,0.0
52539.0,STARLINK-3757,PAYLOAD,2024-01-15 09:59:53,15.08848753,0.000191,53.2189,49.8643,74.972,285.1484,9.6253e-05,1.244e-05,0.0,0 STARLINK-3757,1 52539U 22051G   24015.41659364  .00001244  00000-0  96253-4 0  9994,2 52539  53.2189  49.8643 0001910  74.9720 285.1484 15.08848753 93113,6917.854,95.437,541.04,538.397,0.0
52539.0,STARLINK-3757,PAYLOAD,2024-01-16 01:53:46,15.08835729,0.0001745,53.2188,46.8886,84.0966,276.0225,-4.8303e-05,-1.057e-05,0.0,0 STARLINK-3757,1 52539U 22051G   24016.07900719 -.00001057  00000-0 -48303-4 0  9997,2 52539  53.2188  46.8886 0001745  84.0966 276.0225 15.08835729 93210,6917.893,95.438,540.966,538.551,0.0
52539.0,STARLINK-3757,PAYLOAD,2024-01-16 08:15:18,15.08836136,0.0001826,53.2187,45.7004,79.7854,280.3344,-3.1731e-05,-7.93e-06,0.0,0 STARLINK-3757,1 52539U 22051G   24016.34396740 -.00000793  00000-0 -31731-4 0  9993,2 52539  53.2187  45.7004 0001826  79.7854 280.3344 15.08836136 93185,6917.892,95.438,541.02,538.494,0.0
52539.0,STARLINK-3757,PAYLOAD,2024-01-17 08:06:04,15.08851988,0.0001763,53.219,41.2384,87.8514,272.268,8.8433e-06,-1.47e-06,0.0,0 STARLINK-3757,1 52539U 22051G   24017.33755630 -.00000147  00000-0  88433-5 0  9994,2 52539  53.2190  41.2384 0001763  87.8514 272.2680 15.08851988 93404,6917.844,95.437,540.928,538.489,0.0
52539.0,STARLINK-3757,PAYLOAD,2024-01-18 04:46:06,15.08835916,0.0001569,53.2173,37.3686,99.3207,260.7962,3.7126e-05,3.03e-06,0.0,0 STARLINK-3757,1 52539U 22051G   24018.19868513  .00000303  00000-0  37126-4 0  9999,2 52539  53.2173  37.3686 0001569  99.3207 260.7962 15.08835916 93539,6917.893,95.438,540.843,538.672,0.0
52539.0,STARLINK-3757,PAYLOAD,2024-01-18 06:21:29,15.08836362,0.0001572,53.2174,37.0712,99.2736,260.8434,3.6594e-05,2.94e-06,0.0,0 STARLINK-3757,1 52539U 22051G   24018.26492500  .00000294  00000-0  36594-4 0  9993,2 52539  53.2174  37.0712 0001572  99.2736 260.8434 15.08836362 93471,6917.892,95.438,540.844,538.669,0.0
52539.0,STARLINK-3757,PAYLOAD,2024-01-19 06:12:16,15.0884213,0.0001663,53.2175,32.6179,75.6515,284.4661,-4.3424e-05,-9.79e-06,0.0,0 STARLINK-3757,1 52539U 22051G   24019.25852835 -.00000979  00000-0 -43424-4 0  9996,2 52539  53.2175  32.6179 0001663  75.6515 284.4661 15.08842130 93692,6917.874,95.437,540.889,538.588,0.0
52539.0,STARLINK-3757,PAYLOAD,2024-01-20 06:03:03,15.0883733,0.0001606,53.2172,28.1533,88.7766,271.341,7.2761e-05,8.7e-06,0.0,0 STARLINK-3757,1 52539U 22051G   24020.25212821  .00000870  00000-0  72761-4 0  9997,2 52539  53.2172  28.1533 0001606  88.7766 271.3410 15.08837330 93775,6917.889,95.438,540.865,538.643,0.0
52539.0,STARLINK-3757,PAYLOAD,2024-01-21 04:18:28,15.08833652,0.0001622,53.2175,23.9904,83.8431,276.2746,0.0001002,1.307e-05,0.0,0 STARLINK-3757,1 52539U 22051G   24021.17949225  .00001307  00000-0  10020-3 0  9999,2 52539  53.2175  23.9904 0001622  83.8431 276.2746 15.08833652 93988,6917.9,95.438,540.887,538.643,0.0
52539.0,STARLINK-3757,PAYLOAD,2024-01-21 05:53:51,15.08834044,0.0001637,53.2174,23.6928,86.7075,273.4105,0.00012389,1.684e-05,0.0,0 STARLINK-3757,1 52539U 22051G   24021.24573196  .00001684  00000-0  12389-3 0  9995,2 52539  53.2174  23.6928 0001637  86.7075 273.4105 15.08834044 93920,6917.899,95.438,540.896,538.631,0.0
52539.0,STARLINK-3757,PAYLOAD,2024-01-21 09:04:37,15.0883847,0.0001638,53.2177,23.0981,91.5545,268.5634,0.00016045,2.266e-05,0.0,0 STARLINK-3757,1 52539U 22051G   24021.37820822  .00002266  00000-0  16045-3 0  9990,2 52539  53.2177  23.0981 0001638  91.5545 268.5634 15.08838470 93944,6917.885,95.438,540.883,538.617,0.0
52539.0,STARLINK-3757,PAYLOAD,2024-01-22 04:09:14,15.08866469,0.000167,53.218,19.5307,120.0095,240.1063,-0.00024076,-4.121e-05,0.0,0 STARLINK-3757,1 52539U 22051G   24022.17308061 -.00004121  00000-0 -24076-3 0  9992,2 52539  53.2180  19.5307 0001670 120.0095 240.1063 15.08866469 94137,6917.799,95.436,540.82,538.509,0.0
52539.0,STARLINK-3757,PAYLOAD,2024-01-22 05:44:36,15.0888354,0.0001571,53.2181,19.2341,119.9508,240.164,-0.00044869,-7.43e-05,0.0,0 STARLINK-3757,1 52539U 22051G   24022.23931473 -.00007430  00000-0 -44869-3 0  9996,2 52539  53.2181  19.2341 0001571 119.9508 240.1640 15.08883540 94072,6917.747,95.435,540.699,538.526,0.0
52539.0,STARLINK-3757,PAYLOAD,2024-01-22 08:55:23,15.08849285,0.000178,53.2179,18.6377,115.5133,244.6044,0.00011904,1.607e-05,0.0,0 STARLINK-3757,1 52539U 22051G   24022.37180097  .00001607  00000-0  11904-3 0  9991,2 52539  53.2179  18.6377 0001780 115.5133 244.6044 15.08849285 94164,6917.852,95.437,540.948,538.486,0.0
52539.0,STARLINK-3757,PAYLOAD,2024-01-23 04:00:02,15.08839624,0.0001998,53.2203,15.0589,78.789,281.3327,-1.432e-05,-5.16e-06,0.0,0 STARLINK-3757,1 52539U 22051G   24023.16669239 -.00000516  00000-0 -14320-4 0  9995,2 52539  53.2203  15.0589 0001998  78.7890 281.3327 15.08839624 94280,6917.882,95.438,541.129,538.364,0.0
52539.0,STARLINK-3757,PAYLOAD,2024-01-23 05:35:25,15.0884025,0.0001983,53.2203,14.7617,79.6078,280.5137,-8.848e-06,-4.29e-06,0.0,0 STARLINK-3757,1 52539U 22051G   24023.23293212 -.00000429  00000-0 -88480-5 0  9999,2 52539  53.2203  14.7617 0001983  79.6078 280.5137 15.08840250 94221,6917.88,95.438,541.116,538.373,0.0
52539.0,STARLINK-3757,PAYLOAD,2024-01-25 03:41:35,15.08842323,0.0001809,53.2194,6.1519,109.9835,250.1352,6.2488e-05,7.07e-06,0.0,0 STARLINK-3757,1 52539U 22051G   24025.15388659  .00000707  00000-0  62488-4 0  9998,2 52539  53.2194   6.1519 0001809 109.9835 250.1352 15.08842323 94585,6917.873,95.437,540.99,538.487,0.0
52539.0,STARLINK-3757,PAYLOAD,2024-01-25 05:16:58,15.08843408,0.0001812,53.2193,5.8493,108.3953,251.7237,7.4125e-05,8.92e-06,0.0,0 STARLINK-3757,1 52539U 22051G   24025.22012546  .00000892  00000-0  74125-4 0  9991,2 52539  53.2193   5.8493 0001812 108.3953 251.7237 15.08843408 94527,6917.87,95.437,540.988,538.481,0.0
52539.0,STARLINK-3757,PAYLOAD,2024-01-26 03:32:23,15.08833559,0.0002297,53.22,1.6866,124.9769,235.1439,-2.251e-05,-6.47e-06,0.0,0 STARLINK-3757,1 52539U 22051G   24026.14749458 -.00000647  00000-0 -22510-4 0  9993,2 52539  53.2200   1.6866 0002297 124.9769 235.1439 15.08833559 94730,6917.9,95.438,541.354,538.176,0.0
52539.0,STARLINK-3757,PAYLOAD,2024-01-26 05:07:46,15.0883447,0.0002004,53.2196,1.3908,124.3976,235.7206,2.2814e-06,-2.52e-06,0.0,0 STARLINK-3757,1 52539U 22051G   24026.21373432 -.00000252  00000-0  22814-5 0  9995,2 52539  53.2196   1.3908 0002004 124.3976 235.7206 15.08834470 94672,6917.897,95.438,541.149,538.376,0.0
52539.0,STARLINK-3757,PAYLOAD,2024-01-27 01:47:47,15.08845868,0.00018,53.2196,357.5254,121.0237,239.0932,-6.1528e-05,-1.267e-05,0.0,0 STARLINK-3757,1 52539U 22051G   24027.07485180 -.00001267  00000-0 -61528-4 0  9996,2 52539  53.2196 357.5254 0001800 121.0237 239.0932 15.08845868 94877,6917.862,95.437,540.973,538.482,0.0
52539.0,STARLINK-3757,PAYLOAD,2024-01-27 04:58:33,15.08810403,0.0002223,53.2199,356.9319,121.5015,238.6195,0.00050026,7.676e-05,0.0,0 STARLINK-3757,1 52539U 22051G   24027.20733525  .00007676  00000-0  50026-3 0  9998,2 52539  53.2199 356.9319 0002223 121.5015 238.6195 15.08810403 94899,6917.971,95.439,541.374,538.298,0.0
52539.0,STARLINK-3757,PAYLOAD,2024-01-28 03:13:57,15.08834661,0.0001956,53.2203,352.7734,121.3185,238.7999,2.5115e-05,1.12e-06,0.0,0 STARLINK-3757,1 52539U 22051G   24028.13469876  .00000112  00000-0  25115-4 0  9996,2 52539  53.2203 352.7734 0001956 121.3185 238.7999 15.08834661 95030,6917.897,95.438,541.115,538.409,0.0
52539.0,STARLINK-3757,PAYLOAD,2024-01-28 06:24:44,15.08836648,0.0001571,53.2192,352.1702,100.9115,259.2054,3.6931e-05,3e-06,0.0,0 STARLINK-3757,1 52539U 22051G   24028.26717799  .00000300  00000-0  36931-4 0  9997,2 52539  53.2192 352.1702 0001571 100.9115 259.2054 15.08836648 94985,6917.891,95.438,540.842,538.669,0.0
52539.0,STARLINK-3757,PAYLOAD,2024-01-29 06:15:31,15.08841747,0.0001546,53.2195,347.7107,87.3911,272.7258,0.000106,1.399e-05,0.0,0 STARLINK-3757,1 52539U 22051G   24029.26077592  .00001399  00000-0  10600-3 0  9991,2 52539  53.2195 347.7107 0001546  87.3911 272.7258 15.08841747 95209,6917.875,95.437,540.81,538.671,0.0
52539.0,STARLINK-3757,PAYLOAD,2024-01-30 04:30:54,15.08845279,0.0001766,53.2198,343.5511,76.4165,283.7024,9.098e-05,1.16e-05,0.0,0 STARLINK-3757,1 52539U 22051G   24030.18813534  .00001160  00000-0  90980-4 0  9994,2 52539  53.2198 343.5511 0001766  76.4165 283.7024 15.08845279 95273,6917.864,95.437,540.951,538.508,0.0
52539.0,STARLINK-3757,PAYLOAD,2024-01-30 20:24:46,15.08840183,0.0001982,53.2184,340.5846,64.3942,295.7254,5.7827e-05,6.32e-06,0.0,0 STARLINK-3757,1 52539U 22051G   24030.85054021  .00000632  00000-0  57827-4 0  9992,2 52539  53.2184 340.5846 0001982  64.3942 295.7254 15.08840183 95441,6917.88,95.438,541.116,538.374,0.0
